start=new Date('2023-05-10T00:00:00.000Z').valueOf();
sats=[{"FILE":"3904553","ECCENTRICITY":"0.00027870","OBJECT_ID":"2021-082E","EPHEMERIS_TYPE":"0","CLASSIFICATION_TYPE":"U","INCLINATION":"70.0010","ELEMENT_SET_NO":"999","PERIAPSIS":"570.081","TLE_LINE2":"2 49134  70.0010  25.4577 0002787 268.3885  91.6955 14.98342739 92067","OBJECT_TYPE":"PAYLOAD","SEMIMAJOR_AXIS":"6950.153","MEAN_MOTION_DOT":"0.00001438","MEAN_ANOMALY":"91.6955","RCS_SIZE":"LARGE","MEAN_ELEMENT_THEORY":"SGP4","BSTAR":"0.00012827000000","TIME_SYSTEM":"UTC","CENTER_NAME":"EARTH","MEAN_MOTION_DDOT":"0.0000000000000","APOAPSIS":"573.956","REV_AT_EPOCH":"9206","DECAY_DATE":null,"SITE":"AFWTR","ARG_OF_PERICENTER":"268.3885","RA_OF_ASC_NODE":"25.4577","COUNTRY_CODE":"US","NORAD_CAT_ID":"49134","MEAN_MOTION":"14.98342739","REF_FRAME":"TEME","GP_ID":"231506269","TLE_LINE1":"1 49134U 21082E   23129.13746433  .00001438  00000-0  12827-3 0  9991","OBJECT_NAME":"STARLINK-3078","LAUNCH_DATE":"2021-09-14","PERIOD":"96.106","EPOCH":"2023-05-09T03:17:56.918112"},{"PERIAPSIS":"570.037","TLE_LINE2":"2 49135  70.0003 345.6770 0002871 269.1078  90.9752 14.98338366 91842","CLASSIFICATION_TYPE":"U","INCLINATION":"70.0003","ELEMENT_SET_NO":"999","OBJECT_TYPE":"PAYLOAD","ECCENTRICITY":"0.00028710","FILE":"3904553","OBJECT_ID":"2021-082F","EPHEMERIS_TYPE":"0","RCS_SIZE":"LARGE","CENTER_NAME":"EARTH","MEAN_ELEMENT_THEORY":"SGP4","TIME_SYSTEM":"UTC","BSTAR":"0.00004395800000","MEAN_MOTION_DOT":"0.00000432","SEMIMAJOR_AXIS":"6950.167","MEAN_ANOMALY":"90.9752","NORAD_CAT_ID":"49135","RA_OF_ASC_NODE":"345.6770","COUNTRY_CODE":"US","MEAN_MOTION":"14.98338366","REF_FRAME":"TEME","APOAPSIS":"574.027","MEAN_MOTION_DDOT":"0.0000000000000","ARG_OF_PERICENTER":"269.1078","REV_AT_EPOCH":"9184","DECAY_DATE":null,"SITE":"AFWTR","LAUNCH_DATE":"2021-09-14","PERIOD":"96.106","EPOCH":"2023-05-09T00:59:05.645184","GP_ID":"231505029","TLE_LINE1":"1 49135U 21082F   23129.04103756  .00000432  00000-0  43958-4 0  9990","OBJECT_NAME":"STARLINK-3073"},{"EPOCH":"2023-05-09T00:53:25.238688","PERIOD":"96.106","LAUNCH_DATE":"2021-09-14","OBJECT_NAME":"STARLINK-3084","TLE_LINE1":"1 49136U 21082G   23129.03709767  .00000767  00000-0  72028-4 0  9995","GP_ID":"231505781","REF_FRAME":"TEME","MEAN_MOTION":"14.98341448","NORAD_CAT_ID":"49136","RA_OF_ASC_NODE":"5.7034","COUNTRY_CODE":"US","ARG_OF_PERICENTER":"264.9962","SITE":"AFWTR","DECAY_DATE":null,"REV_AT_EPOCH":"9135","APOAPSIS":"573.968","MEAN_MOTION_DDOT":"0.0000000000000","CENTER_NAME":"EARTH","BSTAR":"0.00007202800000","TIME_SYSTEM":"UTC","MEAN_ELEMENT_THEORY":"SGP4","RCS_SIZE":"LARGE","MEAN_ANOMALY":"95.0878","MEAN_MOTION_DOT":"0.00000767","SEMIMAJOR_AXIS":"6950.157","OBJECT_TYPE":"PAYLOAD","TLE_LINE2":"2 49136  70.0000   5.7034 0002799 264.9962  95.0878 14.98341448 91357","PERIAPSIS":"570.077","ELEMENT_SET_NO":"999","INCLINATION":"70.0000","CLASSIFICATION_TYPE":"U","EPHEMERIS_TYPE":"0","ECCENTRICITY":"0.00027990","FILE":"3904553","OBJECT_ID":"2021-082G"},{"PERIAPSIS":"570.039","TLE_LINE2":"2 49137  70.0009   5.7154 0002859 265.3868  94.6964 14.98340152 91348","CLASSIFICATION_TYPE":"U","INCLINATION":"70.0009","ELEMENT_SET_NO":"999","OBJECT_TYPE":"PAYLOAD","ECCENTRICITY":"0.00028590","FILE":"3904553","OBJECT_ID":"2021-082H","EPHEMERIS_TYPE":"0","RCS_SIZE":"LARGE","CENTER_NAME":"EARTH","MEAN_ELEMENT_THEORY":"SGP4","TIME_SYSTEM":"UTC","BSTAR":"0.00005331600000","MEAN_MOTION_DOT":"0.00000543","SEMIMAJOR_AXIS":"6950.161","MEAN_ANOMALY":"94.6964","NORAD_CAT_ID":"49137","COUNTRY_CODE":"US","RA_OF_ASC_NODE":"5.7154","MEAN_MOTION":"14.98340152","REF_FRAME":"TEME","MEAN_MOTION_DDOT":"0.0000000000000","APOAPSIS":"574.014","ARG_OF_PERICENTER":"265.3868","REV_AT_EPOCH":"9134","DECAY_DATE":null,"SITE":"AFWTR","LAUNCH_DATE":"2021-09-14","PERIOD":"96.106","EPOCH":"2023-05-09T00:47:24.565344","TLE_LINE1":"1 49137U 21082H   23129.03292321  .00000543  00000-0  53316-4 0  9990","GP_ID":"231506032","OBJECT_NAME":"STARLINK-3055"},{"MEAN_ANOMALY":"87.6852","MEAN_MOTION_DOT":"0.00001074","SEMIMAJOR_AXIS":"6950.158","CENTER_NAME":"EARTH","BSTAR":"0.00009774400000","TIME_SYSTEM":"UTC","MEAN_ELEMENT_THEORY":"SGP4","RCS_SIZE":"LARGE","EPHEMERIS_TYPE":"0","OBJECT_ID":"2021-082J","FILE":"3904553","ECCENTRICITY":"0.00030240","OBJECT_TYPE":"PAYLOAD","TLE_LINE2":"2 49138  70.0007  25.4704 0003024 272.3961  87.6852 14.98341132 90867","PERIAPSIS":"569.922","ELEMENT_SET_NO":"999","INCLINATION":"70.0007","CLASSIFICATION_TYPE":"U","OBJECT_NAME":"STARLINK-3058","GP_ID":"231506770","TLE_LINE1":"1 49138U 21082J   23129.13329300  .00001074  00000-0  97744-4 0  9993","EPOCH":"2023-05-09T03:11:56.515200","PERIOD":"96.106","LAUNCH_DATE":"2021-09-14","ARG_OF_PERICENTER":"272.3961","SITE":"AFWTR","DECAY_DATE":null,"REV_AT_EPOCH":"9086","APOAPSIS":"574.125","MEAN_MOTION_DDOT":"0.0000000000000","REF_FRAME":"TEME","MEAN_MOTION":"14.98341132","NORAD_CAT_ID":"49138","COUNTRY_CODE":"US","RA_OF_ASC_NODE":"25.4704"},{"MEAN_ELEMENT_THEORY":"SGP4","TIME_SYSTEM":"UTC","BSTAR":"0.00014481000000","CENTER_NAME":"EARTH","RCS_SIZE":"LARGE","MEAN_ANOMALY":"92.9811","SEMIMAJOR_AXIS":"6950.165","MEAN_MOTION_DOT":"0.00001636","OBJECT_TYPE":"PAYLOAD","CLASSIFICATION_TYPE":"U","INCLINATION":"69.9999","ELEMENT_SET_NO":"999","PERIAPSIS":"569.986","TLE_LINE2":"2 49139  69.9999 345.7057 0002941 267.1011  92.9811 14.98339142 91839","EPHEMERIS_TYPE":"0","ECCENTRICITY":"0.00029410","FILE":"3904553","OBJECT_ID":"2021-082K","PERIOD":"96.106","EPOCH":"2023-05-09T00:47:04.637184","LAUNCH_DATE":"2021-09-14","OBJECT_NAME":"STARLINK-3057","TLE_LINE1":"1 49139U 21082K   23129.03269256  .00001636  00000-0  14481-3 0  9996","GP_ID":"231505530","MEAN_MOTION":"14.98339142","REF_FRAME":"TEME","RA_OF_ASC_NODE":"345.7057","COUNTRY_CODE":"US","NORAD_CAT_ID":"49139","DECAY_DATE":null,"REV_AT_EPOCH":"9183","SITE":"AFWTR","ARG_OF_PERICENTER":"267.1011","APOAPSIS":"574.074","MEAN_MOTION_DDOT":"0.0000000000000"},{"OBJECT_TYPE":"PAYLOAD","ELEMENT_SET_NO":"999","CLASSIFICATION_TYPE":"U","INCLINATION":"69.9999","TLE_LINE2":"2 49140  69.9999 345.7348 0002886 269.5894  90.4934 14.98339152 91837","PERIAPSIS":"570.024","EPHEMERIS_TYPE":"0","FILE":"3904553","OBJECT_ID":"2021-082L","ECCENTRICITY":"0.00028860","TIME_SYSTEM":"UTC","BSTAR":"0.00006621900000","MEAN_ELEMENT_THEORY":"SGP4","CENTER_NAME":"EARTH","RCS_SIZE":"LARGE","MEAN_ANOMALY":"90.4934","SEMIMAJOR_AXIS":"6950.165","MEAN_MOTION_DOT":"0.00000697","REF_FRAME":"TEME","MEAN_MOTION":"14.98339152","RA_OF_ASC_NODE":"345.7348","COUNTRY_CODE":"US","NORAD_CAT_ID":"49140","SITE":"AFWTR","REV_AT_EPOCH":"9183","DECAY_DATE":null,"ARG_OF_PERICENTER":"269.5894","MEAN_MOTION_DDOT":"0.0000000000000","APOAPSIS":"574.035","EPOCH":"2023-05-09T00:35:03.660288","PERIOD":"96.106","LAUNCH_DATE":"2021-09-14","OBJECT_NAME":"STARLINK-3118","TLE_LINE1":"1 49140U 21082L   23129.02434792  .00000697  00000-0  66219-4 0  9999","GP_ID":"231505281"},{"CLASSIFICATION_TYPE":"U","INCLINATION":"70.0009","ELEMENT_SET_NO":"999","PERIAPSIS":"570.055","TLE_LINE2":"2 49141  70.0009  25.4845 0002853 268.5628  91.5204 14.98336608 92066","OBJECT_TYPE":"PAYLOAD","FILE":"3904553","OBJECT_ID":"2021-082M","ECCENTRICITY":"0.00028530","EPHEMERIS_TYPE":"0","RCS_SIZE":"LARGE","MEAN_ELEMENT_THEORY":"SGP4","TIME_SYSTEM":"UTC","BSTAR":"0.00011913000000","CENTER_NAME":"EARTH","SEMIMAJOR_AXIS":"6950.172","MEAN_MOTION_DOT":"0.00001329","MEAN_ANOMALY":"91.5204","COUNTRY_CODE":"US","RA_OF_ASC_NODE":"25.4845","NORAD_CAT_ID":"49141","MEAN_MOTION":"14.98336608","REF_FRAME":"TEME","APOAPSIS":"574.020","MEAN_MOTION_DDOT":"0.0000000000000","DECAY_DATE":null,"REV_AT_EPOCH":"9206","SITE":"AFWTR","ARG_OF_PERICENTER":"268.5628","LAUNCH_DATE":"2021-09-14","PERIOD":"96.107","EPOCH":"2023-05-09T03:05:58.375968","TLE_LINE1":"1 49141U 21082M   23129.12914787  .00001329  00000-0  11913-3 0  9991","GP_ID":"231506533","OBJECT_NAME":"STARLINK-3093"},{"MEAN_ANOMALY":"94.0286","SEMIMAJOR_AXIS":"6950.165","MEAN_MOTION_DOT":"0.00000465","TIME_SYSTEM":"UTC","BSTAR":"0.00004674000000","MEAN_ELEMENT_THEORY":"SGP4","CENTER_NAME":"EARTH","RCS_SIZE":"LARGE","EPHEMERIS_TYPE":"0","OBJECT_ID":"2021-082N","FILE":"3904553","ECCENTRICITY":"0.00030670","OBJECT_TYPE":"PAYLOAD","ELEMENT_SET_NO":"999","INCLINATION":"70.0005","CLASSIFICATION_TYPE":"U","TLE_LINE2":"2 49142  70.0005 345.7470 0003067 266.0522  94.0286 14.98339063 91839","PERIAPSIS":"569.898","OBJECT_NAME":"STARLINK-3042","TLE_LINE1":"1 49142U 21082N   23129.02017589  .00000465  00000-0  46740-4 0  9992","GP_ID":"231506270","EPOCH":"2023-05-09T00:29:03.196896","PERIOD":"96.106","LAUNCH_DATE":"2021-09-14","SITE":"AFWTR","REV_AT_EPOCH":"9183","DECAY_DATE":null,"ARG_OF_PERICENTER":"266.0522","MEAN_MOTION_DDOT":"0.0000000000000","APOAPSIS":"574.161","REF_FRAME":"TEME","MEAN_MOTION":"14.98339063","COUNTRY_CODE":"US","RA_OF_ASC_NODE":"345.7470","NORAD_CAT_ID":"49142"},{"LAUNCH_DATE":"2021-09-14","PERIOD":"96.106","EPOCH":"2023-05-09T02:17:31.852320","TLE_LINE1":"1 49143U 21082P   23129.09550755  .00000956  00000-0  87861-4 0  9991","GP_ID":"231505030","OBJECT_NAME":"STARLINK-3109","NORAD_CAT_ID":"49143","RA_OF_ASC_NODE":"5.5631","COUNTRY_CODE":"US","MEAN_MOTION":"14.98343785","REF_FRAME":"TEME","APOAPSIS":"574.123","MEAN_MOTION_DDOT":"0.0000000000000","ARG_OF_PERICENTER":"267.0651","REV_AT_EPOCH":"9246","DECAY_DATE":null,"SITE":"AFWTR","RCS_SIZE":"LARGE","CENTER_NAME":"EARTH","MEAN_ELEMENT_THEORY":"SGP4","BSTAR":"0.00008786100000","TIME_SYSTEM":"UTC","MEAN_MOTION_DOT":"0.00000956","SEMIMAJOR_AXIS":"6950.150","MEAN_ANOMALY":"93.0161","PERIAPSIS":"569.908","TLE_LINE2":"2 49143  69.9996   5.5631 0003032 267.0651  93.0161 14.98343785 92469","CLASSIFICATION_TYPE":"U","INCLINATION":"69.9996","ELEMENT_SET_NO":"999","OBJECT_TYPE":"PAYLOAD","OBJECT_ID":"2021-082P","FILE":"3904553","ECCENTRICITY":"0.00030320","EPHEMERIS_TYPE":"0"}];
